Results
*******************************************************************************
 Revised: Oct 03, 2018               Anthe / (Saturn)                       649

 Radii (IAU2015): 0.5 x 0.5 x 0.5 km

 Solution fit to all data (including Cassini) through September, 2018.
*******************************************************************************


*******************************************************************************
Ephemeris / API_USER Wed Apr 22 07:32:01 2026 Pasadena, USA      / Horizons    
*******************************************************************************
Target body name: Anthe (649)                     {source: sat415_merged_DE437}
Center body name: Earth (399)                     {source: sat415_merged_DE437}
Center-site name: GEOCENTRIC
*******************************************************************************
Start time      : A.D. 2020-Jan-01 00:00:00.0000 UT      
Stop  time      : A.D. 2020-Dec-20 00:00:00.0000 UT      
Step-size       : 1440 minutes
*******************************************************************************
Target pole/equ : undefined
Target radii    : .5, .5, .500 km                 {Equator_a, b, pole_c}       
Center geodetic : 0.0, 0.0, -6378.137             {E-lon(deg),Lat(deg),Alt(km)}
Center cylindric: 0.0, 0.0, 0.0                   {E-lon(deg),Dxy(km),Dz(km)}
Center pole/equ : ITRF93                          {East-longitude positive}
Center radii    : 6378.137, 6378.137, 6356.752 km {Equator_a, b, pole_c}       
Target primary  : Saturn
Vis. interferer : MOON (R_eq= 1737.400) km        {source: DE441}
Rel. light bend : Sun                             {source: sat415_merged_DE437}
Rel. lght bnd GM: 1.3271E+11 km^3/s^2                                          
Atmos refraction: NO (AIRLESS)
RA format       : HMS
Time format     : CAL 
Calendar mode   : Mixed Julian/Gregorian
EOP file        : eop.260421.p260718                                           
EOP coverage    : DATA-BASED 1962-JAN-20 TO 2026-APR-21. PREDICTS-> 2026-JUL-17
Units conversion: 1 au= 149597870.700 km, c= 299792.458 km/s, 1 day= 86400.0 s 
Table cut-offs 1: Elevation (-90.0deg=NO ),Airmass (>38.000=NO), Daylight (NO )
Table cut-offs 2: Solar elongation (  0.0,180.0=NO ),Local Hour Angle( 0.0=NO )
Table cut-offs 3: RA/DEC angular rate (     0.0=NO )                           
**************************************************************************************************************************
 Date__(UT)__HR:MN     R.A._____(ICRF)_____DEC    APmag   S-brt             delta      deldot     S-O-T /r     S-T-O  Cnst
**************************************************************************************************************************
$$SOE
 2020-Feb-29 00:00     19 59 31.93 -20 37 01.2     n.a.    n.a.  10.7461181000547 -21.0213833   41.7930 /L    3.7742   Sgr
 2020-Mar-01 00:00     19 59 56.14 -20 35 55.1     n.a.    n.a.  10.7348671318999 -18.4859242   42.7009 /L    3.8418   Sgr
 2020-Mar-02 00:00     20 00 20.12 -20 34 49.9     n.a.    n.a.  10.7233622770235 -16.0036263   43.6092 /L    3.9085   Sgr
 2020-Mar-03 00:00     20 00 43.90 -20 33 45.6     n.a.    n.a.  10.7116093403693 -13.7148923   44.5178 /L    3.9741   Sgr
 2020-Mar-04 00:00     20 01 07.47 -20 32 42.3     n.a.    n.a.  10.6996170109715 -11.7491880   45.4266 /L    4.0388   Sgr
 2020-Mar-05 00:00     20 01 30.87 -20 31 39.9     n.a.    n.a.  10.6873966839795 -10.2195155   46.3355 /L    4.1023   Sgr
 2020-Mar-06 00:00     20 01 54.09 -20 30 38.4     n.a.    n.a.  10.6749619144190  -9.2164014   47.2445 /L    4.1649   Sgr
 2020-Mar-07 00:00     20 02 17.14 -20 29 37.7     n.a.    n.a.  10.6623279260755  -8.8037006   48.1537 /L    4.2263   Sgr
 2020-Mar-08 00:00     20 02 40.02 -20 28 37.8     n.a.    n.a.  10.6495109536887  -9.0162511   49.0629 /L    4.2868   Sgr
 2020-Mar-09 00:00     20 03 02.74 -20 27 38.5     n.a.    n.a.  10.6365275818816  -9.8570904   49.9722 /L    4.3462   Sgr
 2020-Mar-10 00:00     20 03 25.29 -20 26 39.9     n.a.    n.a.  10.6233938236466 -11.3002994   50.8817 /L    4.4046   Sgr
 2020-Mar-11 00:00     20 03 47.65 -20 25 41.7     n.a.    n.a.  10.6101249777562 -13.2886627   51.7913 /L    4.4620   Sgr
 2020-Mar-12 00:00     20 04 09.82 -20 24 43.9     n.a.    n.a.  10.5967347114354 -15.7379413   52.7012 /L    4.5183   Sgr
 2020-Mar-13 00:00     20 04 31.77 -20 23 46.5     n.a.    n.a.  10.5832344813246 -18.5423053   53.6115 /L    4.5737   Sgr
 2020-Mar-14 00:00     20 04 53.48 -20 22 49.3     n.a.    n.a.  10.5696334055362 -21.5762380   54.5222 /L    4.6280   Sgr
 2020-Mar-15 00:00     20 05 14.94 -20 21 52.4     n.a.    n.a.  10.5559378232212 -24.7046560   55.4334 /L    4.6814   Sgr
 2020-Mar-16 00:00     20 05 36.11 -20 20 55.7     n.a.    n.a.  10.5421513085377 -27.7867250   56.3453 /L    4.7337   Sgr
 2020-Mar-17 00:00     20 05 56.97 -20 19 59.3     n.a.    n.a.  10.5282745692274 -30.6835730   57.2578 /L    4.7851   Sgr
 2020-Mar-18 00:00     20 06 17.50 -20 19 03.0     n.a.    n.a.  10.5143055808162 -33.2640322   58.1712 /L    4.8353   Sgr
 2020-Mar-19 00:00     20 06 37.69 -20 18 07.1     n.a.    n.a.  10.5002398525026 -35.4120073   59.0854 /L    4.8845   Sgr
 2020-Mar-20 00:00     20 06 57.50 -20 17 11.6     n.a.    n.a.  10.4860707982377 -37.0322151   60.0006 /L    4.9326   Sgr
 2020-Mar-21 00:00     20 07 16.92 -20 16 16.5     n.a.    n.a.  10.4717904014062 -38.0563572   60.9168 /L    4.9796   Sgr
 2020-Mar-22 00:00     20 07 35.95 -20 15 22.1     n.a.    n.a.  10.4573893726210 -38.4436455   61.8339 /L    5.0254   Cap
 2020-Mar-23 00:00     20 07 54.58 -20 14 28.3     n.a.    n.a.  10.4428580782913 -38.1850229   62.7522 /L    5.0700   Cap
 2020-Mar-24 00:00     20 08 12.80 -20 13 35.3     n.a.    n.a.  10.4281871742924 -37.3030946   63.6714 /L    5.1134   Cap
 2020-Mar-25 00:00     20 08 30.62 -20 12 43.2     n.a.    n.a.  10.4133682211174 -35.8518235   64.5917 /L    5.1555   Cap
 2020-Mar-26 00:00     20 08 48.04 -20 11 52.2     n.a.    n.a.  10.3983942439536 -33.9126285   65.5130 /L    5.1963   Cap
 2020-Mar-27 00:00     20 09 05.09 -20 11 02.4     n.a.    n.a.  10.3832602845798 -31.5917232   66.4352 /L    5.2358   Cap
 2020-Mar-28 00:00     20 09 21.76 -20 10 13.9     n.a.    n.a.  10.3679638257162 -29.0139187   67.3583 /L    5.2738   Cap
 2020-Mar-29 00:00     20 09 38.08 -20 09 26.7     n.a.    n.a.  10.3525051939941 -26.3162126   68.2822 /L    5.3105   Cap
 2020-Mar-30 00:00     20 09 54.06 -20 08 40.9     n.a.    n.a.  10.3368877152206 -23.6414842   69.2068 /L    5.3457   Cap
 2020-Mar-31 00:00     20 10 09.73 -20 07 56.5     n.a.    n.a.  10.3211175435295 -21.1282581   70.1321 /L    5.3795   Cap
 2020-Apr-01 00:00     20 10 25.09 -20 07 13.6     n.a.    n.a.  10.3052037933649 -18.9085161   71.0580 /L    5.4118   Cap
 2020-Apr-02 00:00     20 10 40.16 -20 06 32.2     n.a.    n.a.  10.2891582819347 -17.0990307   71.9845 /L    5.4427   Cap
 2020-Apr-03 00:00     20 10 54.96 -20 05 52.1     n.a.    n.a.  10.2729950171989 -15.7950607   72.9114 /L    5.4721   Cap
 2020-Apr-04 00:00     20 11 09.49 -20 05 13.4     n.a.    n.a.  10.2567298765832 -15.0668121   73.8387 /L    5.5000   Cap
 2020-Apr-05 00:00     20 11 23.76 -20 04 36.0     n.a.    n.a.  10.2403796718505 -14.9555400   74.7665 /L    5.5265   Cap
 2020-Apr-06 00:00     20 11 37.76 -20 03 59.7     n.a.    n.a.  10.2239618148349 -15.4715196   75.6947 /L    5.5515   Cap
 2020-Apr-07 00:00     20 11 51.50 -20 03 24.6     n.a.    n.a.  10.2074935873969 -16.5950358   76.6234 /L    5.5751   Cap
 2020-Apr-08 00:00     20 12 04.97 -20 02 50.5     n.a.    n.a.  10.1909914192752 -18.2764475   77.5527 /L    5.5973   Cap
 2020-Apr-09 00:00     20 12 18.14 -20 02 17.3     n.a.    n.a.  10.1744703407176 -20.4382110   78.4825 /L    5.6181   Cap
 2020-Apr-10 00:00     20 12 31.02 -20 01 44.9     n.a.    n.a.  10.1579433710380 -22.9808036   79.4129 /L    5.6375   Cap
 2020-Apr-11 00:00     20 12 43.57 -20 01 13.3     n.a.    n.a.  10.1414214249743 -25.7839857   80.3442 /L    5.6555   Cap
 2020-Apr-12 00:00     20 12 55.78 -20 00 42.3     n.a.    n.a.  10.1249127573317 -28.7153909   81.2762 /L    5.6721   Cap
 2020-Apr-13 00:00     20 13 07.62 -20 00 12.1     n.a.    n.a.  10.1084227484351 -31.6341840   82.2093 /L    5.6873   Cap
 2020-Apr-14 00:00     20 13 19.07 -19 59 42.5     n.a.    n.a.  10.0919538564052 -34.4013267   83.1434 /L    5.7011   Cap
 2020-Apr-15 00:00     20 13 30.11 -19 59 13.6     n.a.    n.a.  10.0755057838452 -36.8837360   84.0786 /L    5.7135   Cap
 2020-Apr-16 00:00     20 13 40.71 -19 58 45.4     n.a.    n.a.  10.0590757249409 -38.9622834   85.0151 /L    5.7245   Cap
 2020-Apr-17 00:00     20 13 50.86 -19 58 18.0     n.a.    n.a.  10.0426584303660 -40.5358672   85.9528 /L    5.7340   Cap
 2020-Apr-18 00:00     20 14 00.54 -19 57 51.5     n.a.    n.a.  10.0262469830234 -41.5281659   86.8920 /L    5.7420   Cap
 2020-Apr-19 00:00     20 14 09.75 -19 57 25.8     n.a.    n.a.  10.0098331968492 -41.8913457   87.8325 /L    5.7485   Cap
 2020-Apr-20 00:00     20 14 18.47 -19 57 01.3     n.a.    n.a.  9.99340824906013 -41.6077481   88.7744 /L    5.7535   Cap
 2020-Apr-21 00:00     20 14 26.70 -19 56 37.9     n.a.    n.a.  9.97696367785331 -40.6928340   89.7178 /L    5.7569   Cap
 2020-Apr-22 00:00     20 14 34.46 -19 56 15.8     n.a.    n.a.  9.96049146682533 -39.1916955   90.6626 /L    5.7587   Cap
 2020-Apr-23 00:00     20 14 41.74 -19 55 55.2     n.a.    n.a.  9.94398495834318 -37.1783482   91.6088 /L    5.7589   Cap
 2020-Apr-24 00:00     20 14 48.56 -19 55 36.0     n.a.    n.a.  9.92743948075706 -34.7515777   92.5563 /L    5.7574   Cap
 2020-Apr-25 00:00     20 14 54.93 -19 55 18.5     n.a.    n.a.  9.91085267413863 -32.0301463   93.5051 /L    5.7543   Cap
 2020-Apr-26 00:00     20 15 00.87 -19 55 02.6     n.a.    n.a.  9.89422490691152 -29.1467677   94.4551 /L    5.7494   Cap
 2020-Apr-27 00:00     20 15 06.41 -19 54 48.5     n.a.    n.a.  9.87755931882703 -26.2417372   95.4062 /L    5.7429   Cap
